[
  {
    "OBJECT_NAME": "STARLINK-31033",
    "OBJECT_ID": "24002U",
    "EPOCH": "2025-11-11T06:16:58.071072",
    "MEAN_MOTION": 15.30197673,
    "ECCENTRICITY": 9.44e-05,
    "INCLINATION": 53.161,
    "RA_OF_ASC_NODE": 60.0027,
    "ARG_OF_PERICENTER": 51.3761,
    "MEAN_ANOMALY": 308.7324,
    "EPHEMERIS_TYPE": 0,
    "CLASSIFICATION_TYPE": "U",
    "NORAD_CAT_ID": 58723,
    "ELEMENT_SET_NO": 999,
    "REV_AT_EPOCH": 10388,
    "BSTAR": 3.1648e-05,
    "MEAN_MOTION_DOT": 5.78e-06,
    "MEAN_MOTION_DDOT": 0.0,
    "TLE_LINE1": "1 58723U 24002U   25315.26178323  .00000578  00000+0  31648-4 0  9996",
    "TLE_LINE2": "2 58723  53.1610  60.0027 0000944  51.3761 308.7324 15.30197673103887",
    "COMMENT": "Grouped by shell and plane from TLE"
  },
  {
    "OBJECT_NAME": "STARLINK-30893",
    "OBJECT_ID": "24002V",
    "EPOCH": "2025-11-11T06:48:52.733088",
    "MEAN_MOTION": 15.30194893,
    "ECCENTRICITY": 0.0001024,
    "INCLINATION": 53.1644,
    "RA_OF_ASC_NODE": 60.1507,
    "ARG_OF_PERICENTER": 85.7632,
    "MEAN_ANOMALY": 274.3486,
    "EPHEMERIS_TYPE": 0,
    "CLASSIFICATION_TYPE": "U",
    "NORAD_CAT_ID": 58724,
    "ELEMENT_SET_NO": 999,
    "REV_AT_EPOCH": 10387,
    "BSTAR": 7.4794e-05,
    "MEAN_MOTION_DOT": 1.856e-05,
    "MEAN_MOTION_DDOT": 0.0,
    "TLE_LINE1": "1 58724U 24002V   25315.28394367  .00001856  00000+0  74794-4 0  9996",
    "TLE_LINE2": "2 58724  53.1644  60.1507 0001024  85.7632 274.3486 15.30194893103874",
    "COMMENT": "Grouped by shell and plane from TLE"
  },
  {
    "OBJECT_NAME": "STARLINK-30856",
    "OBJECT_ID": "24002W",
    "EPOCH": "2025-11-11T06:46:23.687040",
    "MEAN_MOTION": 15.30982792,
    "ECCENTRICITY": 0.0001555,
    "INCLINATION": 53.1598,
    "RA_OF_ASC_NODE": 60.1308,
    "ARG_OF_PERICENTER": 43.3188,
    "MEAN_ANOMALY": 316.7936,
    "EPHEMERIS_TYPE": 0,
    "CLASSIFICATION_TYPE": "U",
    "NORAD_CAT_ID": 58725,
    "ELEMENT_SET_NO": 999,
    "REV_AT_EPOCH": 10388,
    "BSTAR": 0.0020959,
    "MEAN_MOTION_DOT": 0.00063785,
    "MEAN_MOTION_DDOT": 0.0,
    "TLE_LINE1": "1 58725U 24002W   25315.28221860  .00063785  00000+0  20959-2 0  9995",
    "TLE_LINE2": "2 58725  53.1598  60.1308 0001555  43.3188 316.7936 15.30982792103882",
    "COMMENT": "Grouped by shell and plane from TLE"
  },
  {
    "OBJECT_NAME": "STARLINK-31322",
    "OBJECT_ID": "24044S",
    "EPOCH": "2025-11-10T13:36:54.567936",
    "MEAN_MOTION": 15.27607064,
    "ECCENTRICITY": 8.48e-05,
    "INCLINATION": 43.005,
    "RA_OF_ASC_NODE": 60.0808,
    "ARG_OF_PERICENTER": 245.0746,
    "MEAN_ANOMALY": 115.0018,
    "EPHEMERIS_TYPE": 0,
    "CLASSIFICATION_TYPE": "U",
    "NORAD_CAT_ID": 59168,
    "ELEMENT_SET_NO": 999,
    "REV_AT_EPOCH": 9537,
    "BSTAR": 0.00016264,
    "MEAN_MOTION_DOT": 4.22e-05,
    "MEAN_MOTION_DDOT": 0.0,
    "TLE_LINE1": "1 59168U 24044S   25314.56729824  .00004220  00000+0  16264-3 0  9990",
    "TLE_LINE2": "2 59168  43.0050  60.0808 0000848 245.0746 115.0018 15.27607064 95371",
    "COMMENT": "Grouped by shell and plane from TLE"
  },
  {
    "OBJECT_NAME": "STARLINK-31977",
    "OBJECT_ID": "24100H",
    "EPOCH": "2025-11-11T07:05:27.295584",
    "MEAN_MOTION": 15.27580419,
    "ECCENTRICITY": 7.44e-05,
    "INCLINATION": 43.0015,
    "RA_OF_ASC_NODE": 66.7923,
    "ARG_OF_PERICENTER": 292.509,
    "MEAN_ANOMALY": 67.5683,
    "EPHEMERIS_TYPE": 0,
    "CLASSIFICATION_TYPE": "U",
    "NORAD_CAT_ID": 59892,
    "ELEMENT_SET_NO": 999,
    "REV_AT_EPOCH": 8313,
    "BSTAR": 1.0491e-05,
    "MEAN_MOTION_DOT": 2.7e-07,
    "MEAN_MOTION_DDOT": 0.0,
    "TLE_LINE1": "1 59892U 24100H   25315.29545481  .00000027  00000+0  10491-4 0  9991",
    "TLE_LINE2": "2 59892  43.0015  66.7923 0000744 292.5090  67.5683 15.27580419 83135",
    "COMMENT": "Grouped by shell and plane from TLE"
  },
  {
    "OBJECT_NAME": "STARLINK-31961",
    "OBJECT_ID": "24100K",
    "EPOCH": "2025-11-11T07:31:21.499392",
    "MEAN_MOTION": 15.27572923,
    "ECCENTRICITY": 0.000145,
    "INCLINATION": 43.0034,
    "RA_OF_ASC_NODE": 66.9231,
    "ARG_OF_PERICENTER": 242.3276,
    "MEAN_ANOMALY": 117.7428,
    "EPHEMERIS_TYPE": 0,
    "CLASSIFICATION_TYPE": "U",
    "NORAD_CAT_ID": 59894,
    "ELEMENT_SET_NO": 999,
    "REV_AT_EPOCH": 8313,
    "BSTAR": 8.2421e-05,
    "MEAN_MOTION_DOT": 2.006e-05,
    "MEAN_MOTION_DDOT": 0.0,
    "TLE_LINE1": "1 59894U 24100K   25315.31344328  .00002006  00000+0  82421-4 0  9994",
    "TLE_LINE2": "2 59894  43.0034  66.9231 0001450 242.3276 117.7428 15.27572923 83132",
    "COMMENT": "Grouped by shell and plane from TLE"
  },
  {
    "OBJECT_NAME": "STARLINK-31908",
    "OBJECT_ID": "24100S",
    "EPOCH": "2025-11-11T07:25:48.469728",
    "MEAN_MOTION": 15.27575043,
    "ECCENTRICITY": 0.0001435,
    "INCLINATION": 43.0017,
    "RA_OF_ASC_NODE": 66.8916,
    "ARG_OF_PERICENTER": 259.0705,
    "MEAN_ANOMALY": 100.9985,
    "EPHEMERIS_TYPE": 0,
    "CLASSIFICATION_TYPE": "U",
    "NORAD_CAT_ID": 59901,
    "ELEMENT_SET_NO": 999,
    "REV_AT_EPOCH": 8312,
    "BSTAR": 1.634e-07,
    "MEAN_MOTION_DOT": -2.58e-06,
    "MEAN_MOTION_DDOT": 0.0,
    "TLE_LINE1": "1 59901U 24100S   25315.30958877 -.00000258  00000+0  16340-6 0  9999",
    "TLE_LINE2": "2 59901  43.0017  66.8916 0001435 259.0705 100.9985 15.27575043 83123",
    "COMMENT": "Grouped by shell and plane from TLE"
  },
  {
    "OBJECT_NAME": "STARLINK-31861",
    "OBJECT_ID": "24100X",
    "EPOCH": "2025-11-11T07:18:23.765472",
    "MEAN_MOTION": 15.2758174,
    "ECCENTRICITY": 0.0001431,
    "INCLINATION": 43.0042,
    "RA_OF_ASC_NODE": 66.8269,
    "ARG_OF_PERICENTER": 283.7867,
    "MEAN_ANOMALY": 76.2825,
    "EPHEMERIS_TYPE": 0,
    "CLASSIFICATION_TYPE": "U",
    "NORAD_CAT_ID": 59906,
    "ELEMENT_SET_NO": 999,
    "REV_AT_EPOCH": 8312,
    "BSTAR": 3.1030000000000006e-05,
    "MEAN_MOTION_DOT": 5.92e-06,
    "MEAN_MOTION_DDOT": 0.0,
    "TLE_LINE1": "1 59906U 24100X   25315.30444173  .00000592  00000+0  31030-4 0  9994",
    "TLE_LINE2": "2 59906  43.0042  66.8269 0001431 283.7867  76.2825 15.27581740 83125",
    "COMMENT": "Grouped by shell and plane from TLE"
  },
  {
    "OBJECT_NAME": "STARLINK-32197",
    "OBJECT_ID": "24141U",
    "EPOCH": "2025-11-11T07:26:09.291264",
    "MEAN_MOTION": 15.30193426,
    "ECCENTRICITY": 0.0001005,
    "INCLINATION": 53.1617,
    "RA_OF_ASC_NODE": 62.6617,
    "ARG_OF_PERICENTER": 72.0006,
    "MEAN_ANOMALY": 288.1104,
    "EPHEMERIS_TYPE": 0,
    "CLASSIFICATION_TYPE": "U",
    "NORAD_CAT_ID": 60416,
    "ELEMENT_SET_NO": 999,
    "REV_AT_EPOCH": 7153,
    "BSTAR": 7.6085e-05,
    "MEAN_MOTION_DOT": 1.895e-05,
    "MEAN_MOTION_DDOT": 0.0,
    "TLE_LINE1": "1 60416U 24141U   25315.30982976  .00001895  00000+0  76085-4 0  9991",
    "TLE_LINE2": "2 60416  53.1617  62.6617 0001005  72.0006 288.1104 15.30193426 71535",
    "COMMENT": "Grouped by shell and plane from TLE"
  },
  {
    "OBJECT_NAME": "STARLINK-32728",
    "OBJECT_ID": "25029A",
    "EPOCH": "2025-11-11T07:02:31.024032",
    "MEAN_MOTION": 15.30228231,
    "ECCENTRICITY": 0.0001633,
    "INCLINATION": 53.1611,
    "RA_OF_ASC_NODE": 60.0515,
    "ARG_OF_PERICENTER": 83.1459,
    "MEAN_ANOMALY": 276.9728,
    "EPHEMERIS_TYPE": 0,
    "CLASSIFICATION_TYPE": "U",
    "NORAD_CAT_ID": 62948,
    "ELEMENT_SET_NO": 999,
    "REV_AT_EPOCH": 4326,
    "BSTAR": 0.0012538,
    "MEAN_MOTION_DOT": 0.00036992,
    "MEAN_MOTION_DDOT": 0.0,
    "TLE_LINE1": "1 62948U 25029A   25315.29341463  .00036992  00000+0  12538-2 0  9994",
    "TLE_LINE2": "2 62948  53.1611  60.0515 0001633  83.1459 276.9728 15.30228231 43261",
    "COMMENT": "Grouped by shell and plane from TLE"
  },
  {
    "OBJECT_NAME": "STARLINK-32850",
    "OBJECT_ID": "25029C",
    "EPOCH": "2025-11-11T07:33:40.114368",
    "MEAN_MOTION": 15.30236276,
    "ECCENTRICITY": 9.8e-05,
    "INCLINATION": 53.16,
    "RA_OF_ASC_NODE": 62.3153,
    "ARG_OF_PERICENTER": 37.6127,
    "MEAN_ANOMALY": 322.4943,
    "EPHEMERIS_TYPE": 0,
    "CLASSIFICATION_TYPE": "U",
    "NORAD_CAT_ID": 62950,
    "ELEMENT_SET_NO": 999,
    "REV_AT_EPOCH": 4320,
    "BSTAR": 0.0015163,
    "MEAN_MOTION_DOT": 0.0004487,
    "MEAN_MOTION_DDOT": 0.0,
    "TLE_LINE1": "1 62950U 25029C   25315.31504762  .00044870  00000+0  15163-2 0  9994",
    "TLE_LINE2": "2 62950  53.1600  62.3153 0000980  37.6127 322.4943 15.30236276 43203",
    "COMMENT": "Grouped by shell and plane from TLE"
  },
  {
    "OBJECT_NAME": "STARLINK-32875",
    "OBJECT_ID": "25029D",
    "EPOCH": "2025-11-11T07:17:42.999360",
    "MEAN_MOTION": 15.30268499,
    "ECCENTRICITY": 5.35e-05,
    "INCLINATION": 53.1608,
    "RA_OF_ASC_NODE": 60.1183,
    "ARG_OF_PERICENTER": 67.913,
    "MEAN_ANOMALY": 292.1927,
    "EPHEMERIS_TYPE": 0,
    "CLASSIFICATION_TYPE": "U",
    "NORAD_CAT_ID": 62951,
    "ELEMENT_SET_NO": 999,
    "REV_AT_EPOCH": 4323,
    "BSTAR": 0.0021918000000000003,
    "MEAN_MOTION_DOT": 0.00065266,
    "MEAN_MOTION_DDOT": 0.0,
    "TLE_LINE1": "1 62951U 25029D   25315.30396990  .00065266  00000+0  21918-2 0  9993",
    "TLE_LINE2": "2 62951  53.1608  60.1183 0000535  67.9130 292.1927 15.30268499 43237",
    "COMMENT": "Grouped by shell and plane from TLE"
  },
  {
    "OBJECT_NAME": "STARLINK-32865",
    "OBJECT_ID": "25029E",
    "EPOCH": "2025-11-11T07:24:33.221376",
    "MEAN_MOTION": 15.30240217,
    "ECCENTRICITY": 0.0002179,
    "INCLINATION": 53.1589,
    "RA_OF_ASC_NODE": 62.2733,
    "ARG_OF_PERICENTER": 80.5959,
    "MEAN_ANOMALY": 279.5288,
    "EPHEMERIS_TYPE": 0,
    "CLASSIFICATION_TYPE": "U",
    "NORAD_CAT_ID": 62952,
    "ELEMENT_SET_NO": 999,
    "REV_AT_EPOCH": 4320,
    "BSTAR": 0.0018273,
    "MEAN_MOTION_DOT": 0.00054226,
    "MEAN_MOTION_DDOT": 0.0,
    "TLE_LINE1": "1 62952U 25029E   25315.30871784  .00054226  00000+0  18273-2 0  9997",
    "TLE_LINE2": "2 62952  53.1589  62.2733 0002179  80.5959 279.5288 15.30240217 43200",
    "COMMENT": "Grouped by shell and plane from TLE"
  }
]